HAIYANG-2C              
1 46469U 20066A   26141.63359737 -.00000233  00000+0 -13763-3 0  9992
2 46469  65.9981 281.3953 0009864 239.4796 120.5299 13.83371361285826
HJ-2A                   
1 46478U 20067A   26141.60095644  .00000989  00000+0  14883-3 0  9994
2 46478  97.8824 220.5998 0003585  17.4285 342.7048 14.76575371304339
HJ-2B                   
1 46479U 20067B   26141.63739359  .00000436  00000+0  69672-4 0  9990
2 46479  97.8886 221.6372 0001207  77.3379 282.7966 14.76518474304348
GONETS-M 17             
1 46486U 20068A   26141.64510963  .00000074  00000+0  46227-3 0  9996
2 46486  82.5000   4.0168 0023418  92.5264 267.8497 12.42872451255865
GONETS-M 18             
1 46487U 20068B   26141.60876560  .00000078  00000+0  49175-3 0  9990
2 46487  82.4954   3.1673 0020742  89.0639 271.2818 12.42871858255842
GONETS-M 19             
1 46488U 20068C   26141.58457525  .00000157  00000+0  10620-2 0  9994
2 46488  82.4979   3.6279 0014374 102.9204 257.3482 12.42891906255943
DEKART                  
1 46493U 20068H   26141.57976432  .00008517  00000+0  24008-3 0  9996
2 46493  97.8753 148.9589 0009752  31.6717 328.5110 15.36660599311688
NORBI                   
1 46494U 20068J   26141.58678439  .00016153  00000+0  31923-3 0  9993
2 46494  97.8644 155.2325 0006376  14.2249 345.9178 15.47204827312096
SALSAT                  
1 46495U 20068K   26141.45465466  .00005535  00000+0  19705-3 0  9990
2 46495  97.8859 142.9019 0010937  45.0571 315.1553 15.29356447311277
ICEYE-X7                
1 46496U 20068L   26141.60943323  .00008061  00000+0  27276-3 0  9990
2 46496  97.7491 106.9460 0009727  67.6673 292.5597 15.30852070310727
ICEYE-X6                
1 46497U 20068M   26141.58695013  .00002199  00000+0  16240-3 0  9993
2 46497  98.0973 133.9919 0007382 167.8568 192.2836 15.04360935309238
NETSAT-4                
1 46504U 20068U   26140.95894731  .00012073  00000+0  27705-3 0  9990
2 46504  97.8616 147.0338 0007302  69.3171 290.8858 15.42862153311577
NETSAT-3                
1 46505U 20068V   26141.00886066  .00012570  00000+0  30031-3 0  9998
2 46505  97.8666 145.3392 0007366  82.1229 278.0853 15.41639965311497
NETSAT-1                
1 46506U 20068W   26141.46109015  .00009338  00000+0  28707-3 0  9996
2 46506  97.8754 140.4672 0006977 100.8529 259.3498 15.33913256311206
NETSAT-2                
1 46507U 20068X   26141.48758293  .00016128  00000+0  34677-3 0  9995
2 46507  97.8632 147.4068 0006208  91.2398 268.9560 15.44735783311612
STARLINK-1663           
1 46535U 20070D   26141.58334491  .00092749  00000+0  45529-3 0  9991
2 46535  53.0361 133.2684 0008023  45.0725 278.1521 15.81444411  5987
STARLINK-1672           
1 46537U 20070F   26141.43262524  .00041372  00000+0  51756-3 0  9999
2 46537  53.0444 146.5955 0005218   4.7591 355.3470 15.59405574311360
STARLINK-1678           
1 46538U 20070G   26141.58334491  .00020267  00000+0  11449-3 0  9994
2 46538  53.0353 110.5985 0007456  57.4640 285.4400 15.79133830  5989
STARLINK-1664           
1 46553U 20070X   26141.38389913  .00050616  00000+0  97905-3 0  9990
2 46553  53.0444 147.4773 0005765  29.4237 330.7093 15.47262635311346
STARLINK-1676           
1 46556U 20070AA  26141.25514697  .00056539  00000+0  54380-3 0  9998
2 46556  53.0380 151.9752 0009637  15.3841 344.7465 15.65980770311279
STARLINK-1679           
1 46557U 20070AB  26141.21725832  .00080512  00000+0  59151-3 0  9999
2 46557  53.0402 127.6883 0008660  53.1472 307.0338 15.72385856311605
STARLINK-1714           
1 46562U 20070AG  26141.36399453  .00066873  00000+0  58992-3 0  9993
2 46562  53.0386 122.6839 0008867  39.5415 320.6246 15.68060486311694
STARLINK-1730           
1 46563U 20070AH  26141.38336638  .00082721  00000+0  11704-2 0  9991
2 46563  53.0256 133.3944 0006134  35.0811 325.0603 15.55805745311544
STARLINK-1735           
1 46565U 20070AK  26141.21021590  .00101228  00000+0  60966-3 0  9992
2 46565  53.0350 120.4719 0011142  51.8205 308.3817 15.76846511311704
STARLINK-1741           
1 46567U 20070AM  26141.35190439  .00134158  00000+0  69308-3 0  9995
2 46567  53.0374 117.6039 0009246  56.7830 303.4076 15.80164394311761
STARLINK-1531           
1 46572U 20070AS  26141.58334491  .00044610  00000+0  22915-3 0  9990
2 46572  53.0482 138.2365 0008223  76.3679 180.1940 15.80754680  5887
STARLINK-1677           
1 46576U 20070AW  26141.58334491  .00143158  00000+0  54896-3 0  9994
2 46576  53.0268 120.9692 0009089  48.9563 320.9485 15.86450503  5894
STARLINK-1728           
1 46582U 20070BC  26141.40245057  .00063267  00000+0  57315-3 0  9992
2 46582  53.0348 130.7200 0011245  44.0232 316.1677 15.67398446311583
STARLINK-1736           
1 46585U 20070BF  26141.58334491  .00100755  00000+0  35642-3 0  9998
2 46585  53.0320 112.0662 0008429  58.4205 297.7005 15.88240362  6003
GAOFEN-13 01            
1 46610U 20071A   26141.61462397 -.00000370  00000+0  00000+0 0  9998
2 46610   0.4543  84.9699 0041686 123.3691  10.4155  1.00272992 20651
STARLINK-1716           
1 46672U 20073C   26141.56226712  .00132700  00000+0  62601-3 0  9992
2 46672  53.0366 199.2696 0005395 330.2322  29.8392 15.82177405309172
STARLINK-1718           
1 46674U 20073E   26141.57909159  .00058240  00000+0  49070-3 0  9999
2 46674  53.0426 231.1748 0002259 275.7924  84.2834 15.69282109308721
STARLINK-1781           
1 46685U 20073R   26141.59310514  .00063900  00000+0  53648-3 0  9999
2 46685  53.0451 246.5596 0002624 274.1256  85.9460 15.69329676308509
STARLINK-1784           
1 46687U 20073T   26140.83978333  .00092941  00000+0  55523-3 0  9997
2 46687  53.0378 190.1144 0004254  20.4602 339.6587 15.77137716309231
STARLINK-1788           
1 46689U 20073V   26141.50395740  .00107960  00000+0  61514-3 0  9994
2 46689  53.0345 218.2409 0006427 339.0448  21.0307 15.78123461310141
STARLINK-1795           
1 46696U 20073AC  26141.58334491  .00224995  29476-4  74953-3 0  9998
2 46696  53.0316 176.5563 0011472   6.4659  53.0294 15.89750388  6002
STARLINK-1797           
1 46698U 20073AE  26140.92650235  .00047087  00000+0  45537-3 0  9992
2 46698  53.0396 216.5510 0006516 341.7868  18.2912 15.65954164308871
STARLINK-1801           
1 46701U 20073AH  26141.58141707  .00497621  12609-3  72839-3 0  9999
2 46701  53.0306 189.7581 0011517  14.4281 345.7077 16.04422020309300
STARLINK-1802           
1 46702U 20073AJ  26140.68727086  .00031131  00000+0  87732-3 0  9996
2 46702  53.1572 241.2416 0003280 323.0183  37.0594 15.36185539308529
STARLINK-1805           
1 46705U 20073AM  26140.68400192  .00046860  00000+0  45867-3 0  9993
2 46705  53.0438 253.3199 0001556 309.4763  50.6113 15.65676076308330
STARLINK-1807           
1 46706U 20073AN  26141.04905646  .00023929  00000+0  83741-3 0  9993
2 46706  53.0592 253.2566 0002591 354.3109   5.7860 15.29410585308377
STARLINK-1810           
1 46709U 20073AR  26141.01099062  .00058722  00000+0  72501-3 0  9990
2 46709  53.0408 243.1358 0005164 335.9540  24.1230 15.59599852308505
STARLINK-1815           
1 46713U 20073AV  26141.58334491  .00279864  39915-4  90400-3 0  9997
2 46713  53.0358 197.4421 0009086 350.1540 292.9342 15.90343885  6009
STARLINK-1816           
1 46714U 20073AW  26141.44089258  .05293454  12234-4  82744-3 0  9994
2 46714  53.0153 188.2563 0008295 327.1105  32.9421 16.33065895309309
STARLINK-1817           
1 46715U 20073AX  26141.50892382  .00079121  00000+0  50189-3 0  9991
2 46715  53.0430 217.7688 0002695  15.4933 344.6168 15.75846386308901
STARLINK-1821           
1 46718U 20073BA  26141.01403879  .00060003  00000+0  11493-2 0  9992
2 46718  53.0441 243.1355 0002293  14.6881 345.4192 15.47485306308510
STARLINK-1826           
1 46723U 20073BF  26141.43901649  .00077734  00000+0  52981-3 0  9999
2 46723  53.0416 182.0238 0007873  35.5633 324.5908 15.74164319309405
STARLINK-1828           
1 46725U 20073BH  26141.29887217  .00051569  00000+0  49191-3 0  9996
2 46725  53.0457 242.5368 0004612 291.3654  68.6868 15.66270634308545
STARLINK-1830           
1 46727U 20073BK  26141.27742968  .00062304  00000+0  54235-3 0  9993
2 46727  53.0357 188.3306 0006507 340.9875  19.0897 15.68437852309302
STARLINK-1892           
1 46743U 20074E   26141.46876437  .00062930  00000+0  62062-3 0  9994
2 46743  53.0408 299.9077 0005429 272.5683  87.4710 15.65348349308424
STARLINK-1905           
1 46746U 20074H   26141.42243134  .00124707  00000+0  67318-3 0  9995
2 46746  53.0381 283.3735 0004468 261.7968  98.2545 15.79276310308646
STARLINK-1911           
1 46749U 20074L   26141.56252512  .01325345  11754-4  79711-3 0  9998
2 46749  53.0315 268.9204 0014044 313.3830  46.6036 16.17431779308859
STARLINK-1922           
1 46753U 20074Q   26141.40204060  .00105853  00000+0  50560-3 0  9998
2 46753  53.0420 282.8301 0007006 278.8212  81.2017 15.81992019308654
STARLINK-1928           
1 46758U 20074V   26141.58334491  .00101782  00000+0  40996-3 0  9993
2 46758  53.0389 281.3205 0006354 270.1546 344.1681 15.85610460  5899
STARLINK-1835           
1 46782U 20074AV  26141.40828568  .00064213  00000+0  51151-3 0  9996
2 46782  53.0406 277.7292 0006370 233.8838 126.1589 15.70575426308728
STARLINK-1882           
1 46784U 20074AX  26140.87498629  .00107073  00000+0  61344-3 0  9996
2 46784  53.0452 277.8750 0003857 325.3132  34.7636 15.78021745308671
STARLINK-1893           
1 46786U 20074AZ  26141.38064319  .00087369  00000+0  99564-3 0  9990
2 46786  53.0447 272.2009 0005740 270.5793  89.4562 15.61521366308806
STARLINK-1931           
1 46790U 20074BD  26141.58334491  .00122691  00000+0  53927-3 0  9999
2 46790  53.0385 280.8574 0006850 291.1849 288.7115 15.83704197  5898
STARLINK-1942           
1 46794U 20074BH  26141.47549243  .00069274  00000+0  84259-3 0  9993
2 46794  53.0422 302.9059 0005520 234.2834 125.7665 15.59921427308383
